NUSAT-48 (HENRIETTA LE*)
1 60498U 24149AG  26068.80506098  .00012988  00000+0  45212-3 0  9999
2 60498  97.3923 150.8264 0002754 263.3026  96.7901 15.29812597 86946
STARLINK-36210          
1 67174U 25303M   26068.03496551  .00035797  00000+0  13035-2 0  9997
2 67174  43.0036 314.5291 0002237 258.7936 101.2664 15.27594454 12630
